{
  "norad_id": 64328,
  "name": "STARLINK-11707 [DTC]",
  "history": [
    {
      "epoch": "2026-03-28T19:37:42.894912",
      "apogee_km": 357.6462689018199,
      "perigee_km": 355.27313171656533,
      "latitude_deg": -23.213860337485585,
      "longitude_deg": -28.68567231995985,
      "semi_major_axis_km": 6734.596700309193,
      "eccentricity": 0.00017619,
      "inclination_deg": 43.0001,
      "raan_deg": 273.8345,
      "arg_perigee_deg": 288.7595,
      "mean_anomaly_deg": 71.3081,
      "mean_motion_rev_day": 15.70852372
    }
  ]
}